{
    "links": {
        "self": "http://www.neowsapp.com/rest/v1/neo/3612167?api_key=iIulBulltgU6a56xZRHN4H3l9WmuAYTsLGpBGhQ2"
    },
    "id": "3612167",
    "neo_reference_id": "3612167",
    "name": "(2012 UT9)",
    "designation": "2012 UT9",
    "nasa_jpl_url": "http://ssd.jpl.nasa.gov/sbdb.cgi?sstr=3612167",
    "absolute_magnitude_h": 23.7,
    "estimated_diameter": {
        "kilometers": {
            "estimated_diameter_min": 0.0483676488,
            "estimated_diameter_max": 0.1081533507
        },
        "meters": {
            "estimated_diameter_min": 48.3676488219,
            "estimated_diameter_max": 108.1533506775
        },
        "miles": {
            "estimated_diameter_min": 0.0300542543,
            "estimated_diameter_max": 0.0672033557
        },
        "feet": {
            "estimated_diameter_min": 158.6865169607,
            "estimated_diameter_max": 354.8338390368
        }
    },
    "is_potentially_hazardous_asteroid": false,
    "close_approach_data": [
        {
            "close_approach_date": "1944-09-22",
            "close_approach_date_full": "1944-Sep-22 09:37",
            "epoch_date_close_approach": -797610180000,
            "relative_velocity": {
                "kilometers_per_second": "16.6205103681",
                "kilometers_per_hour": "59833.8373251737",
                "miles_per_hour": "37178.4196424114"
            },
            "miss_distance": {
                "astronomical": "0.374920352",
                "lunar": "145.844016928",
                "kilometers": "56087286.07885024",
                "miles": "34851023.505963712"
            },
            "orbiting_body": "Earth"
        },
        {
            "close_approach_date": "2009-10-05",
            "close_approach_date_full": "2009-Oct-05 18:33",
            "epoch_date_close_approach": 1254767580000,
            "relative_velocity": {
                "kilometers_per_second": "14.5797744791",
                "kilometers_per_hour": "52487.1881246837",
                "miles_per_hour": "32613.4975322514"
            },
            "miss_distance": {
                "astronomical": "0.1480955025",
                "lunar": "57.6091504725",
                "kilometers": "22154771.730579675",
                "miles": "13766336.799862515"
            },
            "orbiting_body": "Earth"
        },
        {
            "close_approach_date": "2012-10-13",
            "close_approach_date_full": "2012-Oct-13 03:45",
            "epoch_date_close_approach": 1350099900000,
            "relative_velocity": {
                "kilometers_per_second": "14.7918295949",
                "kilometers_per_hour": "53250.5865415306",
                "miles_per_hour": "33087.8436207638"
            },
            "miss_distance": {
                "astronomical": "0.0163219215",
                "lunar": "6.3492274635",
                "kilometers": "2441724.690707205",
                "miles": "1517217.368501229"
            },
            "orbiting_body": "Earth"
        },
        {
            "close_approach_date": "2015-10-21",
            "close_approach_date_full": "2015-Oct-21 09:13",
            "epoch_date_close_approach": 1445418780000,
            "relative_velocity": {
                "kilometers_per_second": "16.2785525223",
                "kilometers_per_hour": "58602.7890804103",
                "miles_per_hour": "36413.4941372138"
            },
            "miss_distance": {
                "astronomical": "0.1564891619",
                "lunar": "60.8742839791",
                "kilometers": "23410445.298325153",
                "miles": "14546576.1746789914"
            },
            "orbiting_body": "Earth"
        },
        {
            "close_approach_date": "2018-10-28",
            "close_approach_date_full": "2018-Oct-28 16:58",
            "epoch_date_close_approach": 1540745880000,
            "relative_velocity": {
                "kilometers_per_second": "18.8771285495",
                "kilometers_per_hour": "67957.6627781179",
                "miles_per_hour": "42226.2488523255"
            },
            "miss_distance": {
                "astronomical": "0.3171637656",
                "lunar": "123.3767048184",
                "kilometers": "47447023.774939272",
                "miles": "29482213.4653430736"
            },
            "orbiting_body": "Earth"
        }
    ],
    "orbital_data": {
        "orbit_id": "9",
        "orbit_determination_date": "2017-04-06 08:48:27",
        "first_observation_date": "2012-10-13",
        "last_observation_date": "2012-10-23",
        "data_arc_in_days": 10,
        "observations_used": 39,
        "orbit_uncertainty": "8",
        "minimum_orbit_intersection": ".0162451",
        "jupiter_tisserand_invariant": "4.825",
        "epoch_osculation": "2456218.5",
        "eccentricity": ".2401972198363113",
        "semi_major_axis": "1.317644615309089",
        "inclination": "26.31076731206551",
        "ascending_node_longitude": "200.32874278",
        "orbital_period": "552.453671598572",
        "perihelion_distance": "1.00115004197956",
        "perihelion_argument": "159.02563531",
        "aphelion_distance": "1.634139188638618",
        "perihelion_time": "2456194.723082388611",
        "mean_anomaly": "15.49395140289654",
        "mean_motion": ".6516383517885024",
        "equinox": "J2000",
        "orbit_class": {
            "orbit_class_type": "APO",
            "orbit_class_description": "Near-Earth asteroid orbits which cross the Earth’s orbit similar to that of 1862 Apollo",
            "orbit_class_range": "a (semi-major axis) > 1.0 AU; q (perihelion) < 1.017 AU"
        }
    },
    "is_sentry_object": false
}